[
    {
        "Altitude(m)": 624792.7707895462,
        "Argument of Periapsis(deg)": 0.0,
        "Eccentricity": 0.0,
        "Inclination(deg)": 60.0,
        "Latitude(deg)": -59.147083683582736,
        "Longitude(deg)": -175.9737772719984,
        "Mean Anomaly(deg)": 261.8182,
        "RAAN(deg)": 30.0,
        "Satellite Name": "Test1 148",
        "Satellite Number": 148,
        "Semi-Major Axis(m)": 6980739.136638005,
        "Time(s)": 0
    },
    {
        "Altitude(m)": 624842.1635268676,
        "Argument of Periapsis(deg)": 0.00010418945913296404,
        "Eccentricity": 0.0,
        "Inclination(deg)": 60.0,
        "Latitude(deg)": -59.289169400980924,
        "Longitude(deg)": -174.84427431653233,
        "Mean Anomaly(deg)": 262.43830614546187,
        "RAAN(deg)": 29.99957995086026,
        "Satellite Name": "Test1 148",
        "Satellite Number": 148,
        "Semi-Major Axis(m)": 6980739.136638005,
        "Time(s)": 10
    }
]